IRIDIUM 33 DEB          
1 34487U 97051GC  26191.56465833  .00000344  00000+0  94956-4 0  9994
2 34487  86.3428 282.0286 0032010 153.0145 271.3394 14.43514155912758
IRIDIUM 33 DEB          
1 34508U 97051GZ  26191.78973208  .00001672  00000+0  51493-3 0  9995
2 34508  86.3705  13.4462 0062938 201.2257 158.6330 14.39802760903309
IRIDIUM 33 DEB          
1 34521U 97051HN  26191.30137911  .00003329  00000+0  60362-3 0  9997
2 34521  86.3787 298.0740 0001360 245.1974 114.9098 14.66019073915406
IRIDIUM 33 DEB          
1 34525U 97051HS  26191.35389037  .00000675  00000+0  19404-3 0  9996
2 34525  86.3744 317.3550 0006618 112.2037 274.3001 14.43419324911119
IRIDIUM 33 DEB          
1 34529U 97051HW  26191.30693603  .00000420  00000+0  12474-3 0  9990
2 34529  86.3645 306.0736 0003698 207.3990 152.7016 14.40882860911596
IRIDIUM 33 DEB          
1 34651U 97051KC  26189.03749253  .00002531  00000+0  91417-3 0  9995
2 34651  86.2791  52.0608 0129228 256.7550 101.9202 14.28686801888530
IRIDIUM 33 DEB          
1 34696U 97051KT  26191.57838141  .00025437  00000+0  33253-2 0  9994
2 34696  86.1776 288.6646 0059826 162.4324 261.1388 14.79063171897616
IRIDIUM 33 DEB          
1 34765U 97051LJ  26191.30168825  .00000700  00000+0  21156-3 0  9993
2 34765  86.3396 302.8119 0014399 243.3444 145.1876 14.41007312906310
IRIDIUM 33 DEB          
1 34870U 97051MQ  26190.04856060  .00004283  00000+0  55601-3 0  9997
2 34870  86.3100 218.3276 0016214 175.4829 214.1675 14.80437108919899
IRIDIUM 33 DEB          
1 34896U 97051MY  26190.87914414  .00002074  00000+0  35458-3 0  9998
2 34896  86.3274 232.7107 0023902 214.9533 269.1836 14.68235551906861
IRIDIUM 33 DEB          
1 34985U 97051NR  26191.37270453  .00001082  00000+0  31772-3 0  9994
2 34985  86.3713 327.4013 0019187 249.6927 138.4584 14.42870402901975
IRIDIUM 33 DEB          
1 35051U 97051NX  26191.53193395  .00001095  00000+0  28620-3 0  9998
2 35051  86.3226 277.3430 0010703 108.7733 251.4633 14.48550383900328
IRIDIUM 33 DEB          
1 35052U 97051NY  26191.56594381  .00000309  00000+0  93943-4 0  9990
2 35052  86.3308 290.5168 0013598 111.6741 248.5907 14.38747424902924
IRIDIUM 33 DEB          
1 35080U 97051PF  26185.61625925  .01940257  00000+0  25779-1 0  9994
2 35080  86.2025 311.5906 0014408 256.2023 103.7635 15.55227130727612
IRIDIUM 33 DEB          
1 35297U 97051PM  26188.69829672  .00001633  00000+0  45224-3 0  9994
2 35297  86.3895 334.3862 0016292 170.9342 189.2157 14.46034862734164
IRIDIUM 33 DEB          
1 35299U 97051PP  26191.28686948  .00002735  00000+0  80237-3 0  9999
2 35299  86.2876 301.8332 0057195 130.2523 259.8390 14.42573693893505
IRIDIUM 33 DEB          
1 35480U 97051QA  26189.61345983  .00001293  00000+0  32299-3 0  9999
2 35480  86.3555 294.7220 0015709 126.9601 233.3045 14.50747500900447
IRIDIUM 33 DEB          
1 35484U 97051QE  26187.93814412  .00035409  00000+0  17316-2 0  9992
2 35484  86.3413 254.5480 0014890 101.7984 258.4929 15.17967349651240
IRIDIUM 33 DEB          
1 35488U 97051QJ  26190.02342233  .00004994  00000+0  54453-3 0  9996
2 35488  86.3242 204.4797 0025360  28.3106 331.9491 14.87522896913582
