OBJECT_NAME,OBJECT_ID,EPOCH,MEAN_MOTION,ECCENTRICITY,INCLINATION,RA_OF_ASC_NODE,ARG_OF_PERICENTER,MEAN_ANOMALY,EPHEMERIS_TYPE,CLASSIFICATION_TYPE,NORAD_CAT_ID,ELEMENT_SET_NO,REV_AT_EPOCH,BSTAR,MEAN_MOTION_DOT,MEAN_MOTION_DDOT
IRIDIUM 33 DEB,1997-051GC,2026-07-10T13:33:06.479712,14.43514155,.003201,86.3428,282.0286,153.0145,271.3394,0,U,34487,999,91275,.94956E-4,.344E-5,0
IRIDIUM 33 DEB,1997-051GZ,2026-07-10T18:57:12.851712,14.39802760,.0062938,86.3705,13.4462,201.2257,158.6330,0,U,34508,999,90330,.51493E-3,.1672E-4,0
IRIDIUM 33 DEB,1997-051HN,2026-07-10T07:13:59.155104,14.66019073,.000136,86.3787,298.0740,245.1974,114.9098,0,U,34521,999,91540,.60362118E-3,.3329E-4,0
IRIDIUM 33 DEB,1997-051HS,2026-07-10T08:29:36.127968,14.43419324,.00066183,86.3744,317.3550,112.2037,274.3001,0,U,34525,999,91111,.19403996E-3,.675E-5,0
IRIDIUM 33 DEB,1997-051HW,2026-07-10T07:21:59.272992,14.40882860,.00036986,86.3645,306.0736,207.3990,152.7016,0,U,34529,999,91159,.12473562E-3,.42E-5,0
IRIDIUM 33 DEB,1997-051KC,2026-07-08T00:53:59.354592,14.28686801,.01292288,86.2791,52.0608,256.7550,101.9202,0,U,34651,999,88853,.91417322E-3,.2531E-4,0
IRIDIUM 33 DEB,1997-051KT,2026-07-10T13:52:52.153824,14.79063171,.0059826,86.1776,288.6646,162.4324,261.1388,0,U,34696,999,89761,.33253E-2,.25437E-3,0
IRIDIUM 33 DEB,1997-051LJ,2026-07-10T07:14:25.864800,14.41007312,.00143998,86.3396,302.8119,243.3444,145.1876,0,U,34765,999,90631,.21156319E-3,.7E-5,0
IRIDIUM 33 DEB,1997-051MQ,2026-07-09T01:09:55.635840,14.80437108,.00162143,86.3100,218.3276,175.4829,214.1675,0,U,34870,999,91989,.55601188E-3,.4283E-4,0
IRIDIUM 33 DEB,1997-051MY,2026-07-09T21:05:58.053696,14.68235551,.00239025,86.3274,232.7107,214.9533,269.1836,0,U,34896,999,90686,.35457577E-3,.2074E-4,0
IRIDIUM 33 DEB,1997-051NR,2026-07-10T08:56:41.671392,14.42870402,.00191873,86.3713,327.4013,249.6927,138.4584,0,U,34985,999,90197,.31772307E-3,.1082E-4,0
IRIDIUM 33 DEB,1997-051NX,2026-07-10T12:45:59.093280,14.48550383,.0010703,86.3226,277.3430,108.7733,251.4633,0,U,35051,999,90032,.2862E-3,.1095E-4,0
IRIDIUM 33 DEB,1997-051NY,2026-07-10T13:34:57.545184,14.38747424,.0013598,86.3308,290.5168,111.6741,248.5907,0,U,35052,999,90292,.93943E-4,.309E-5,0
IRIDIUM 33 DEB,1997-051PF,2026-07-04T14:47:24.799200,15.55227130,.00144083,86.2025,311.5906,256.2023,103.7635,0,U,35080,999,72761,.25779433E-1,.1940257E-1,0
IRIDIUM 33 DEB,1997-051PM,2026-07-07T16:45:32.836608,14.46034862,.00162929,86.3895,334.3862,170.9342,189.2157,0,U,35297,999,73416,.45224055E-3,.1633E-4,0
IRIDIUM 33 DEB,1997-051PP,2026-07-10T06:53:05.523072,14.42573693,.00571951,86.2876,301.8332,130.2523,259.8390,0,U,35299,999,89350,.80236889E-3,.2735E-4,0
IRIDIUM 33 DEB,1997-051QA,2026-07-08T14:43:22.929312,14.50747500,.00157097,86.3555,294.7220,126.9601,233.3045,0,U,35480,999,90044,.32299403E-3,.1293E-4,0
IRIDIUM 33 DEB,1997-051QE,2026-07-06T22:30:55.651968,15.17967349,.00148904,86.3413,254.5480,101.7984,258.4929,0,U,35484,999,65124,.17315571E-2,.35409E-3,0
IRIDIUM 33 DEB,1997-051QJ,2026-07-09T00:33:43.689312,14.87522896,.00253608,86.3242,204.4797,28.3106,331.9491,0,U,35488,999,91358,.5445312E-3,.4994E-4,0
